CHAMP
1 26405U 00039B   03037.87221680  .00009821  00000-0  14857-3 0  8476
2 26405  87.2570 154.7999 0002008  25.2977 334.8384 15.54509857144915
